{
  "type": "FeatureCollection",
  "features": [
    {
      "type": "Feature",
      "properties": {
        "norad_id": 34540,
        "name": "IRIDIUM 33 DEB",
        "group": "iridium-33-debris",
        "lat": -49.99811378250487,
        "lon": 133.12179778773697,
        "alt_km": 646.1879980173335,
        "timestamp": "2025-12-10T07:43:55.164501+00:00",
        "meta_object_name": "IRIDIUM 33 DEB",
        "meta_object_id": "1997-051JH",
        "meta_epoch": "2025-12-09T21:03:31.895136",
        "meta_mean_motion": 14.75221849,
        "meta_eccentricity": 0.0015917,
        "meta_inclination": 86.3107,
        "meta_ra_of_asc_node": 308.9152,
        "meta_arg_of_pericenter": 169.314,
        "meta_mean_anomaly": 220.3312,
        "meta_ephemeris_type": 0,
        "meta_classification_type": "U",
        "meta_norad_cat_id": 34540,
        "meta_element_set_no": 999,
        "meta_rev_at_epoch": 88979,
        "meta_bstar": 0.002569,
        "meta_mean_motion_dot": 0.00017451,
        "meta_mean_motion_ddot": 0,
        "tle_line1": "1 34540U 97051JH  25343.87745249  .00017451  00000+0  25690-2 0  9992",
        "tle_line2": "2 34540  86.3107 308.9152 0015917 169.3140 220.3312 14.75221849889795"
      },
      "geometry": {
        "type": "Point",
        "coordinates": [
          133.12179778773697,
          -49.99811378250487
        ]
      }
    },
    {
      "type": "Feature",
      "properties": {
        "norad_id": 34648,
        "name": "IRIDIUM 33 DEB",
        "group": "iridium-33-debris",
        "lat": -29.44437550245984,
        "lon": 104.96378035063765,
        "alt_km": 874.3190515867618,
        "timestamp": "2025-12-10T07:43:55.164511+00:00",
        "meta_object_name": "IRIDIUM 33 DEB",
        "meta_object_id": "1997-051JZ",
        "meta_epoch": "2025-12-08T20:41:39.004800",
        "meta_mean_motion": 14.11300262,
        "meta_eccentricity": 0.01839546,
        "meta_inclination": 86.3913,
        "meta_ra_of_asc_node": 283.5113,
        "meta_arg_of_pericenter": 310.9542,
        "meta_mean_anomaly": 47.5843,
        "meta_ephemeris_type": 0,
        "meta_classification_type": "U",
        "meta_norad_cat_id": 34648,
        "meta_element_set_no": 999,
        "meta_rev_at_epoch": 84906,
        "meta_bstar": 0.013206348,
        "meta_mean_motion_dot": 0.00028062,
        "meta_mean_motion_ddot": 0,
        "tle_line1": "1 34648U 97051JZ  25342.86225700  .00028062  00000+0  13206-1 0  9993",
        "tle_line2": "2 34648  86.3913 283.5113 0183954 310.9542  47.5843 14.11300262849062"
      },
      "geometry": {
        "type": "Point",
        "coordinates": [
          104.96378035063765,
          -29.44437550245984
        ]
      }
    },
    {
      "type": "Feature",
      "properties": {
        "norad_id": 34651,
        "name": "IRIDIUM 33 DEB",
        "group": "iridium-33-debris",
        "lat": 36.82832283676991,
        "lon": -41.18326919982694,
        "alt_km": 764.9846857341845,
        "timestamp": "2025-12-10T07:43:55.164521+00:00",
        "meta_object_name": "IRIDIUM 33 DEB",
        "meta_object_id": "1997-051KC",
        "meta_epoch": "2025-12-09T17:34:37.579296",
        "meta_mean_motion": 14.25734133,
        "meta_eccentricity": 0.0142017,
        "meta_inclination": 86.2849,
        "meta_ra_of_asc_node": 141.8564,
        "meta_arg_of_pericenter": 213.5102,
        "meta_mean_anomaly": 145.7045,
        "meta_ephemeris_type": 0,
        "meta_classification_type": "U",
        "meta_norad_cat_id": 34651,
        "meta_element_set_no": 999,
        "meta_rev_at_epoch": 85853,
        "meta_bstar": 0.005267,
        "meta_mean_motion_dot": 0.0001393,
        "meta_mean_motion_ddot": 0,
        "tle_line1": "1 34651U 97051KC  25343.73237939  .00013930  00000+0  52670-2 0  9998",
        "tle_line2": "2 34651  86.2849 141.8564 0142017 213.5102 145.7045 14.25734133858534"
      },
      "geometry": {
        "type": "Point",
        "coordinates": [
          -41.18326919982694,
          36.82832283676991
        ]
      }
    },
    {
      "type": "Feature",
      "properties": {
        "norad_id": 34652,
        "name": "IRIDIUM 33 DEB",
        "group": "iridium-33-debris",
        "lat": -60.12798263263104,
        "lon": 167.49130851925142,
        "alt_km": 686.6136415546243,
        "timestamp": "2025-12-10T07:43:55.164531+00:00",
        "meta_object_name": "IRIDIUM 33 DEB",
        "meta_object_id": "1997-051KD",
        "meta_epoch": "2025-12-09T11:37:22.959264",
        "meta_mean_motion": 14.62008914,
        "meta_eccentricity": 0.00262076,
        "meta_inclination": 86.3314,
        "meta_ra_of_asc_node": 341.4507,
        "meta_arg_of_pericenter": 310.1115,
        "meta_mean_anomaly": 203.3524,
        "meta_ephemeris_type": 0,
        "meta_classification_type": "U",
        "meta_norad_cat_id": 34652,
        "meta_element_set_no": 999,
        "meta_rev_at_epoch": 88436,
        "meta_bstar": 0.0015009226,
        "meta_mean_motion_dot": 7.584e-05,
        "meta_mean_motion_ddot": 0,
        "tle_line1": "1 34652U 97051KD  25343.48429351  .00007584  00000+0  15009-2 0  9995",
        "tle_line2": "2 34652  86.3314 341.4507 0026207 310.1115 203.3524 14.62008914884363"
      },
      "geometry": {
        "type": "Point",
        "coordinates": [
          167.49130851925142,
          -60.12798263263104
        ]
      }
    },
    {
      "type": "Feature",
      "properties": {
        "norad_id": 34690,
        "name": "IRIDIUM 33 DEB",
        "group": "iridium-33-debris",
        "lat": 15.933765454331525,
        "lon": -142.99417644222984,
        "alt_km": 714.7076129832649,
        "timestamp": "2025-12-10T07:43:55.164541+00:00",
        "meta_object_name": "IRIDIUM 33 DEB",
        "meta_object_id": "1997-051KM",
        "meta_epoch": "2025-12-09T15:10:43.095936",
        "meta_mean_motion": 14.55078564,
        "meta_eccentricity": 0.001121,
        "meta_inclination": 86.378,
        "meta_ra_of_asc_node": 38.3417,
        "meta_arg_of_pericenter": 38.8624,
        "meta_mean_anomaly": 114.3139,
        "meta_ephemeris_type": 0,
        "meta_classification_type": "U",
        "meta_norad_cat_id": 34690,
        "meta_element_set_no": 999,
        "meta_rev_at_epoch": 88049,
        "meta_bstar": 0.00073259,
        "meta_mean_motion_dot": 3.182e-05,
        "meta_mean_motion_ddot": 0,
        "tle_line1": "1 34690U 97051KM  25343.63244324  .00003182  00000+0  73259-3 0  9991",
        "tle_line2": "2 34690  86.3780  38.3417 0011210  38.8624 114.3139 14.55078564880494"
      },
      "geometry": {
        "type": "Point",
        "coordinates": [
          -142.99417644222984,
          15.933765454331525
        ]
      }
    },
    {
      "type": "Feature",
      "properties": {
        "norad_id": 34693,
        "name": "IRIDIUM 33 DEB",
        "group": "iridium-33-debris",
        "lat": -57.10339565744756,
        "lon": -60.70725496168172,
        "alt_km": 495.9011554489234,
        "timestamp": "2025-12-10T07:43:55.164551+00:00",
        "meta_object_name": "IRIDIUM 33 DEB",
        "meta_object_id": "1997-051KQ",
        "meta_epoch": "2025-12-09T21:06:11.394720",
        "meta_mean_motion": 15.26837164,
        "meta_eccentricity": 0.0014636,
        "meta_inclination": 86.3062,
        "meta_ra_of_asc_node": 305.2443,
        "meta_arg_of_pericenter": 57.3276,
        "meta_mean_anomaly": 332.8894,
        "meta_ephemeris_type": 0,
        "meta_classification_type": "U",
        "meta_norad_cat_id": 34693,
        "meta_element_set_no": 999,
        "meta_rev_at_epoch": 88871,
        "meta_bstar": 0.0064613,
        "meta_mean_motion_dot": 0.00174516,
        "meta_mean_motion_ddot": 0,
        "tle_line1": "1 34693U 97051KQ  25343.87929855  .00174516  00000+0  64613-2 0  9992",
        "tle_line2": "2 34693  86.3062 305.2443 0014636  57.3276 332.8894 15.26837164888715"
      },
      "geometry": {
        "type": "Point",
        "coordinates": [
          -60.70725496168172,
          -57.10339565744756
        ]
      }
    },
    {
      "type": "Feature",
      "properties": {
        "norad_id": 34696,
        "name": "IRIDIUM 33 DEB",
        "group": "iridium-33-debris",
        "lat": -36.66708223801988,
        "lon": -148.5052239396344,
        "alt_km": 644.2378473667413,
        "timestamp": "2025-12-10T07:43:55.164561+00:00",
        "meta_object_name": "IRIDIUM 33 DEB",
        "meta_object_id": "1997-051KT",
        "meta_epoch": "2025-12-09T09:30:59.474016",
        "meta_mean_motion": 14.64808482,
        "meta_eccentricity": 0.00742951,
        "meta_inclination": 86.1845,
        "meta_ra_of_asc_node": 29.0773,
        "meta_arg_of_pericenter": 178.7552,
        "meta_mean_anomaly": 199.1834,
        "meta_ephemeris_type": 0,
        "meta_classification_type": "U",
        "meta_norad_cat_id": 34696,
        "meta_element_set_no": 999,
        "meta_rev_at_epoch": 86624,
        "meta_bstar": 0.0068804754,
        "meta_mean_motion_dot": 0.00038407,
        "meta_mean_motion_ddot": 0,
        "tle_line1": "1 34696U 97051KT  25343.39652169  .00038407  00000+0  68805-2 0  9998",
        "tle_line2": "2 34696  86.1845  29.0773 0074295 178.7552 199.1834 14.64808482866248"
      },
      "geometry": {
        "type": "Point",
        "coordinates": [
          -148.5052239396344,
          -36.66708223801988
        ]
      }
    }
  ]
}